CCSDS_OMM_VERS,COMMENT,CREATION_DATE,ORIGINATOR,OBJECT_NAME,OBJECT_ID,CENTER_NAME,REF_FRAME,TIME_SYSTEM,MEAN_ELEMENT_THEORY,EPOCH,MEAN_MOTION,ECCENTRICITY,INCLINATION,RA_OF_ASC_NODE,ARG_OF_PERICENTER,MEAN_ANOMALY,EPHEMERIS_TYPE,CLASSIFICATION_TYPE,NORAD_CAT_ID,ELEMENT_SET_NO,REV_AT_EPOCH,BSTAR,MEAN_MOTION_DOT,MEAN_MOTION_DDOT,SEMIMAJOR_AXIS,PERIOD,APOAPSIS,PERIAPSIS,OBJECT_TYPE,RCS_SIZE,COUNTRY_CODE,LAUNCH_DATE,SITE,DECAY_DATE,FILE,GP_ID,TLE_LINE0,TLE_LINE1,TLE_LINE2
"3.0","GENERATED VIA SPACE-TRACK.ORG API","2025-02-01T10:46:19","18 SPCS","STARLINK-2054","2021-012AW","EARTH","TEME","UTC","SGP4","2025-02-01T09:16:39.611712","16.40899638","0.00021490","53.0266","21.3703","92.2395","67.5778","0","U","47664","999","21970","0.00075147000000","0.11494346","0.0000123860000","6541.547","87.757","164.818","162.007","PAYLOAD","LARGE","US","2021-02-16","AFETR","2025-02-01","4627780","279663567","0 STARLINK-2054","1 47664U 21012AW  25032.38656958  .11494346  12386-4  75147-3 0  9998","2 47664  53.0266  21.3703 0002149  92.2395  67.5778 16.40899638219706"
"3.0","GENERATED VIA SPACE-TRACK.ORG API","2025-02-01T11:56:16","18 SPCS","STARLINK-2182","2021-017AU","EARTH","TEME","UTC","SGP4","2025-02-01T11:21:19.398816","16.44214951","0.00082800","53.0235","193.2997","21.9388","73.9905","0","U","47764","999","21689","0.00034011000000","0.10556508","0.0000126080000","6532.751","87.580","160.025","149.207","PAYLOAD","LARGE","US","2021-03-04","AFETR","2025-02-01","4627783","279663570","0 STARLINK-2182","1 47764U 21017AU  25032.47314119  .10556508  12608-4  34011-3 0  9994","2 47764  53.0235 193.2997 0008280  21.9388  73.9905 16.44214951216893"
"3.0","GENERATED VIA SPACE-TRACK.ORG API","2025-04-11T02:29:26","18 SPCS","ATLAS 5 CENTAUR DEB","2018-079P","EARTH","TEME","UTC","SGP4","2025-02-01T13:46:15.628800","2.00641333","0.46107700","13.1735","37.9101","315.5402","15.4108","0","U","44653","999","4021","0.00000000000000","-0.00000103","0.0000000000000","26553.488","717.699","32418.555","7932.150","DEBRIS","","US","2018-10-17","AFETR","","4698154","285348078","0 ATLAS 5 CENTAUR DEB","1 44653U 18079P   25032.57379200 -.00000103  00000-0  00000-0 0  9997","2 44653  13.1735  37.9101 4610770 315.5402  15.4108  2.00641333 40218"
"3.0","GENERATED VIA SPACE-TRACK.ORG API","2025-02-08T22:56:17","18 SPCS","COSMOS 2499 DEB","2014-028CB","EARTH","TEME","UTC","SGP4","2025-02-01T13:47:46.158720","14.36461402","0.02085710","82.1028","146.7712","225.3773","133.0243","0","U","60615","999","10050","0.23240000000000","0.00929174","0.0000000000000","7148.351","100.246","919.310","621.122","DEBRIS","SMALL","CIS","2014-05-23","PKMTR","2025-03-08","4634859","280241719","0 COSMOS 2499 DEB","1 60615U 14028CB  25032.57483980  .00929174  00000-0  23240+0 0  9991","2 60615  82.1028 146.7712 0208571 225.3773 133.0243 14.36461402100504"
"3.0","GENERATED VIA SPACE-TRACK.ORG API","2025-02-02T02:17:30","18 SPCS","KSF3-C","2023-001K","EARTH","TEME","UTC","SGP4","2025-02-01T15:31:01.602912","16.30974139","0.00084110","97.3532","108.0701","286.8617","73.1755","0","U","55018","999","11641","0.00154080000000","0.07390767","0.0000024480000","6568.060","88.291","195.450","184.401","PAYLOAD","MEDIUM","LUXE","2023-01-03","AFETR","2025-02-03","4628366","279730094","0 KSF3-C","1 55018U 23001K   25032.64654633  .07390767  24480-5  15408-2 0  9996","2 55018  97.3532 108.0701 0008411 286.8617  73.1755 16.30974139116413"
"3.0","GENERATED VIA SPACE-TRACK.ORG API","2025-02-02T00:06:16","18 SPCS","STARLINK-1987","2021-009AM","EARTH","TEME","UTC","SGP4","2025-02-01T22:13:54.398784","16.43844684","0.00029470","53.0298","343.9608","216.7197","252.6036","0","U","47583","999","22150","0.00071753000000","0.17635550","0.0000124280000","6533.732","87.600","157.523","153.672","PAYLOAD","LARGE","US","2021-02-04","AFETR","2025-02-02","4628360","279706886","0 STARLINK-1987","1 47583U 21009AM  25032.92632406  .17635550  12428-4  71753-3 0  9992","2 47583  53.0298 343.9608 0002947 216.7197 252.6036 16.43844684221506"
"3.0","GENERATED VIA SPACE-TRACK.ORG API","2025-02-04T18:10:45","18 SPCS","FENGYUN 1C DEB","1999-025CNY","EARTH","TEME","UTC","SGP4","2025-02-02T05:01:26.835168","15.15842564","0.00255410","102.2290","192.1800","294.6261","238.9297","0","U","31971","999","4383","0.02432700000000","0.00501706","0.0000000000000","6896.559","94.997","536.038","500.809","DEBRIS","SMALL","PRC","1999-05-10","TSC","2025-03-08","4631053","279957275","0 FENGYUN 1C DEB","1 31971U 99025CNY 25033.20933837  .00501706  00000-0  24327-1 0  9992","2 31971 102.2290 192.1800 0025541 294.6261 238.9297 15.15842564 43836"
"3.0","GENERATED VIA SPACE-TRACK.ORG API","2025-02-02T07:36:24","18 SPCS","ZQ-2 R/B","2023-193D","EARTH","TEME","UTC","SGP4","2025-02-02T05:28:39.845280","16.47442894","0.00075950","97.2212","58.1933","267.0586","161.2014","0","U","58556","999","6565","0.00024476000000","0.13754771","0.0000024818000","6524.215","87.408","151.035","141.125","ROCKET BODY","LARGE","PRC","2023-12-08","JSC","2025-02-02","4628712","279744975","0 ZQ-2 R/B","1 58556U 23193D   25033.22823895  .13754771  24818-5  24476-3 0  9998","2 58556  97.2212  58.1933 0007595 267.0586 161.2014 16.47442894 65659"
"3.0","GENERATED VIA SPACE-TRACK.ORG API","2025-02-02T20:06:15","18 SPCS","STARLINK-1981","2021-009AH","EARTH","TEME","UTC","SGP4","2025-02-02T18:39:05.252832","16.45985662","0.00127950","53.0175","333.1346","183.4451","255.0642","0","U","47579","999","22172","0.00031269000000","0.15572450","0.0000123130000","6528.065","87.486","158.283","141.577","PAYLOAD","LARGE","US","2021-02-04","AFETR","2025-02-02","4629050","279782689","0 STARLINK-1981","1 47579U 21009AH  25033.77714413  .15572450  12313-4  31269-3 0  9998","2 47579  53.0175 333.1346 0012795 183.4451 255.0642 16.45985662221728"
"3.0","GENERATED VIA SPACE-TRACK.ORG API","2025-02-03T17:28:00","18 SPCS","OBJECT C","2022-019C","EARTH","TEME","UTC","SGP4","2025-02-03T03:13:55.172640","16.38218520","0.00098240","97.3650","123.4139","284.5343","75.4866","0","U","51826","999","16336","0.00105780000000","0.10786365","0.0000024918000","6548.683","87.900","176.981","164.114","UNKNOWN","MEDIUM","PRC","2022-02-27","WSC","2025-02-21","4629997","279855410","0 OBJECT C","1 51826U 22019C   25034.13466635  .10786365  24918-5  10578-2 0  9992","2 51826  97.3650 123.4139 0009824 284.5343  75.4866 16.38218520163360"
"3.0","GENERATED VIA SPACE-TRACK.ORG API","2025-02-03T04:46:15","18 SPCS","STARLINK-2602","2021-038AS","EARTH","TEME","UTC","SGP4","2025-02-03T04:27:12.352896","16.39758528","0.00054180","53.0469","312.8901","248.4945","225.3779","0","U","48393","999","20797","0.00082712000000","0.11063833","0.0000123210000","6544.582","87.818","169.993","162.901","PAYLOAD","LARGE","US","2021-05-04","AFETR","2025-02-03","4629302","279788221","0 STARLINK-2602","1 48393U 21038AS  25034.18555964  .11063833  12321-4  82712-3 0  9999","2 48393  53.0469 312.8901 0005418 248.4945 225.3779 16.39758528207978"
"3.0","GENERATED VIA SPACE-TRACK.ORG API","2025-02-03T08:16:15","18 SPCS","STARLINK-1910","2020-074K","EARTH","TEME","UTC","SGP4","2025-02-03T05:19:06.277152","16.33376938","0.00216700","53.0009","269.1038","20.6189","80.7891","0","U","46748","999","23712","0.00153140000000","0.10950401","0.0000125180000","6561.617","88.161","197.701","169.263","PAYLOAD","LARGE","US","2020-10-24","AFETR","2025-02-03","4629636","279825873","0 STARLINK-1910","1 46748U 20074K   25034.22160043  .10950401  12518-4  15314-2 0  9991","2 46748  53.0009 269.1038 0021670  20.6189  80.7891 16.33376938237126"
"3.0","GENERATED VIA SPACE-TRACK.ORG API","2025-02-03T08:06:17","18 SPCS","OBJECT D","2022-095D","EARTH","TEME","UTC","SGP4","2025-02-03T07:32:00.533184","16.51636382","0.00066180","97.2782","133.4632","217.2595","217.2620","0","U","53387","999","14018","0.00020653000000","0.22620994","0.0000027936000","6513.167","87.186","139.342","130.722","UNKNOWN","LARGE","PRC","2022-08-09","JSC","2025-02-03","4629634","279825871","0 OBJECT D","1 53387U 22095D   25034.31389506  .22620994  27936-5  20653-3 0  9998","2 53387  97.2782 133.4632 0006618 217.2595 217.2620 16.51636382140182"
"3.0","GENERATED VIA SPACE-TRACK.ORG API","2025-02-03T10:16:16","18 SPCS","STARLINK-3321","2022-001A","EARTH","TEME","UTC","SGP4","2025-02-03T09:42:39.988800","16.47250370","0.00019460","53.1892","133.2971","261.4992","143.0296","0","U","50803","999","17179","0.00029856000000","0.15211588","0.0000125450000","6524.723","87.418","147.858","145.319","PAYLOAD","LARGE","US","2022-01-06","AFETR","2025-02-03","4629639","279825876","0 STARLINK-3321","1 50803U 22001A   25034.40462950  .15211588  12545-4  29856-3 0  9990","2 50803  53.1892 133.2971 0001946 261.4992 143.0296 16.47250370171790"
"3.0","GENERATED VIA SPACE-TRACK.ORG API","2025-02-03T12:36:17","18 SPCS","STARLINK-2294","2021-024AV","EARTH","TEME","UTC","SGP4","2025-02-03T09:56:45.142368","16.38278407","0.00074100","53.0299","226.9750","266.5056","173.0333","0","U","48020","999","21527","0.00109720000000","0.12383694","0.0000123070000","6548.523","87.897","175.241","165.536","PAYLOAD","LARGE","US","2021-03-24","AFETR","2025-02-03","4629645","279825882","0 STARLINK-2294","1 48020U 21024AV  25034.41441137  .12383694  12307-4  10972-2 0  9996","2 48020  53.0299 226.9750 0007410 266.5056 173.0333 16.38278407215270"
"3.0","GENERATED VIA SPACE-TRACK.ORG API","2025-02-03T14:36:25","18 SPCS","STARLINK-2129","2021-017F","EARTH","TEME","UTC","SGP4","2025-02-03T13:37:12.806112","16.44740771","0.00033290","53.0222","73.9346","43.8021","94.9150","0","U","47727","999","21874","0.00066269000000","0.20303465","0.0000125340000","6531.359","87.552","155.398","151.049","PAYLOAD","LARGE","US","2021-03-04","AFETR","2025-02-03","4629762","279828110","0 STARLINK-2129","1 47727U 21017F   25034.56750933  .20303465  12534-4  66269-3 0  9994","2 47727  53.0222  73.9346 0003329  43.8021  94.9150 16.44740771218741"
